STARLINK-36784          
1 67877U 26034AD  26060.16667824 -.01430325  00000+0 -64633-2 0  9997
2 67877  53.1485 253.8655 0000731  60.1147 226.6148 15.86215602  2497
STARLINK-36689          
1 67878U 26034AE  26060.16667824 -.01430012  00000+0 -64074-2 0  9990
2 67878  53.1485 253.8589 0000755  68.2592 221.6456 15.86385617  2494
STARLINK-36818          
1 67879U 26035A   26060.16667824 -.00615391  13952-3 -95361-3 0  9994
2 67879  97.2810 351.7953 0000987 107.9056  82.5641 16.04162419  2384
STARLINK-36821          
1 67880U 26035B   26060.16667824 -.00605962  13589-3 -92774-3 0  9990
2 67880  97.2808 351.7973 0000951 101.4361  93.1945 16.04362850  2380
STARLINK-36808          
1 67881U 26035C   26060.16667824 -.00609386  13710-3 -94039-3 0  9997
2 67881  97.2807 351.7961 0000962 108.5858  83.4402 16.04231203  2385
STARLINK-36817          
1 67882U 26035D   26060.16667824 -.00605284  13604-3 -91245-3 0  9999
2 67882  97.2803 351.7993 0001026 113.7629  85.9469 16.04620981  2388
STARLINK-36856          
1 67883U 26035E   26060.16667824 -.00608443  13716-3 -92379-3 0  9993
2 67883  97.2806 351.7983 0000921 105.1718  92.1850 16.04502681  2388
STARLINK-36842          
1 67884U 26035F   26060.16667824 -.00613764  13982-3 -91890-3 0  9998
2 67884  97.2804 351.8002 0000908 104.4680  97.4193 16.04736426  2389
STARLINK-36826          
1 67885U 26035G   26060.16667824 -.00609720  13824-3 -90823-3 0  9996
2 67885  97.2803 351.8010 0000964 109.4017  94.1813 16.04820075  2386
STARLINK-36390          
1 67886U 26035H   26060.16667824 -.00619727  14276-3 -91526-3 0  9998
2 67886  97.2801 351.8019 0000852 102.3998 103.8640 16.04963702  2437
STARLINK-36368          
1 67887U 26035J   26060.16667824 -.00639559  15166-3 -93680-3 0  9996
2 67887  97.2801 351.8031 0000919 105.4036 103.3944 16.05102453  2388
STARLINK-36801          
1 67888U 26035K   26060.16667824 -.00647200  15533-3 -93995-3 0  9996
2 67888  97.2799 351.8041 0000915 116.5368  94.6937 16.05244219  2384
