CCSDS_OMM_VERS = 2.0
CREATION_DATE  = 
ORIGINATOR     = 

OBJECT_NAME    = STARLINK-36784
OBJECT_ID      = 2026-034AD
CENTER_NAME    = EARTH
REF_FRAME      = TEME
TIME_SYSTEM    = UTC
MEAN_ELEMENT_THEORY = SGP/SGP4

EPOCH          = 2026-03-01T04:00:00.999936
MEAN_MOTION    = 15.86215602
ECCENTRICITY   = .0000731
INCLINATION    = 53.1485
RA_OF_ASC_NODE = 253.8655
ARG_OF_PERICENTER = 60.1147
MEAN_ANOMALY   = 226.6148

EPHEMERIS_TYPE = 0
CLASSIFICATION_TYPE = U
NORAD_CAT_ID   = 67877
ELEMENT_SET_NO = 999
REV_AT_EPOCH   = 249
BSTAR          = -.64633E-2
MEAN_MOTION_DOT = -.1430325E-1
MEAN_MOTION_DDOT = 0

CCSDS_OMM_VERS = 2.0
CREATION_DATE  = 
ORIGINATOR     = 

OBJECT_NAME    = STARLINK-36689
OBJECT_ID      = 2026-034AE
CENTER_NAME    = EARTH
REF_FRAME      = TEME
TIME_SYSTEM    = UTC
MEAN_ELEMENT_THEORY = SGP/SGP4

EPOCH          = 2026-03-01T04:00:00.999936
MEAN_MOTION    = 15.86385617
ECCENTRICITY   = .0000755
INCLINATION    = 53.1485
RA_OF_ASC_NODE = 253.8589
ARG_OF_PERICENTER = 68.2592
MEAN_ANOMALY   = 221.6456

EPHEMERIS_TYPE = 0
CLASSIFICATION_TYPE = U
NORAD_CAT_ID   = 67878
ELEMENT_SET_NO = 999
REV_AT_EPOCH   = 249
BSTAR          = -.64074E-2
MEAN_MOTION_DOT = -.1430012E-1
MEAN_MOTION_DDOT = 0

CCSDS_OMM_VERS = 2.0
CREATION_DATE  = 
ORIGINATOR     = 

OBJECT_NAME    = STARLINK-36818
OBJECT_ID      = 2026-035A
CENTER_NAME    = EARTH
REF_FRAME      = TEME
TIME_SYSTEM    = UTC
MEAN_ELEMENT_THEORY = SGP/SGP4

EPOCH          = 2026-03-01T04:00:00.999936
MEAN_MOTION    = 16.04162419
ECCENTRICITY   = .0000987
INCLINATION    = 97.2810
RA_OF_ASC_NODE = 351.7953
ARG_OF_PERICENTER = 107.9056
MEAN_ANOMALY   = 82.5641

EPHEMERIS_TYPE = 0
CLASSIFICATION_TYPE = U
NORAD_CAT_ID   = 67879
ELEMENT_SET_NO = 999
REV_AT_EPOCH   = 238
BSTAR          = -.95361E-3
MEAN_MOTION_DOT = -.615391E-2
MEAN_MOTION_DDOT = .13952E-3

CCSDS_OMM_VERS = 2.0
CREATION_DATE  = 
ORIGINATOR     = 

OBJECT_NAME    = STARLINK-36821
OBJECT_ID      = 2026-035B
CENTER_NAME    = EARTH
REF_FRAME      = TEME
TIME_SYSTEM    = UTC
MEAN_ELEMENT_THEORY = SGP/SGP4

EPOCH          = 2026-03-01T04:00:00.999936
MEAN_MOTION    = 16.04362850
ECCENTRICITY   = .0000951
INCLINATION    = 97.2808
RA_OF_ASC_NODE = 351.7973
ARG_OF_PERICENTER = 101.4361
MEAN_ANOMALY   = 93.1945

EPHEMERIS_TYPE = 0
CLASSIFICATION_TYPE = U
NORAD_CAT_ID   = 67880
ELEMENT_SET_NO = 999
REV_AT_EPOCH   = 238
BSTAR          = -.92774E-3
MEAN_MOTION_DOT = -.605962E-2
MEAN_MOTION_DDOT = .13589E-3

CCSDS_OMM_VERS = 2.0
CREATION_DATE  = 
ORIGINATOR     = 

OBJECT_NAME    = STARLINK-36808
OBJECT_ID      = 2026-035C
CENTER_NAME    = EARTH
REF_FRAME      = TEME
TIME_SYSTEM    = UTC
MEAN_ELEMENT_THEORY = SGP/SGP4

EPOCH          = 2026-03-01T04:00:00.999936
MEAN_MOTION    = 16.04231203
ECCENTRICITY   = .0000962
INCLINATION    = 97.2807
RA_OF_ASC_NODE = 351.7961
ARG_OF_PERICENTER = 108.5858
MEAN_ANOMALY   = 83.4402

EPHEMERIS_TYPE = 0
CLASSIFICATION_TYPE = U
NORAD_CAT_ID   = 67881
ELEMENT_SET_NO = 999
REV_AT_EPOCH   = 238
BSTAR          = -.94039E-3
MEAN_MOTION_DOT = -.609386E-2
MEAN_MOTION_DDOT = .1371E-3

CCSDS_OMM_VERS = 2.0
CREATION_DATE  = 
ORIGINATOR     = 

OBJECT_NAME    = STARLINK-36817
OBJECT_ID      = 2026-035D
CENTER_NAME    = EARTH
REF_FRAME      = TEME
TIME_SYSTEM    = UTC
MEAN_ELEMENT_THEORY = SGP/SGP4

EPOCH          = 2026-03-01T04:00:00.999936
MEAN_MOTION    = 16.04620981
ECCENTRICITY   = .0001026
INCLINATION    = 97.2803
RA_OF_ASC_NODE = 351.7993
ARG_OF_PERICENTER = 113.7629
MEAN_ANOMALY   = 85.9469

EPHEMERIS_TYPE = 0
CLASSIFICATION_TYPE = U
NORAD_CAT_ID   = 67882
ELEMENT_SET_NO = 999
REV_AT_EPOCH   = 238
BSTAR          = -.91245E-3
MEAN_MOTION_DOT = -.605284E-2
MEAN_MOTION_DDOT = .13604E-3

CCSDS_OMM_VERS = 2.0
CREATION_DATE  = 
ORIGINATOR     = 

OBJECT_NAME    = STARLINK-36856
OBJECT_ID      = 2026-035E
CENTER_NAME    = EARTH
REF_FRAME      = TEME
TIME_SYSTEM    = UTC
MEAN_ELEMENT_THEORY = SGP/SGP4

EPOCH          = 2026-03-01T04:00:00.999936
MEAN_MOTION    = 16.04502681
ECCENTRICITY   = .0000921
INCLINATION    = 97.2806
RA_OF_ASC_NODE = 351.7983
ARG_OF_PERICENTER = 105.1718
MEAN_ANOMALY   = 92.1850

EPHEMERIS_TYPE = 0
CLASSIFICATION_TYPE = U
NORAD_CAT_ID   = 67883
ELEMENT_SET_NO = 999
REV_AT_EPOCH   = 238
BSTAR          = -.92379E-3
MEAN_MOTION_DOT = -.608443E-2
MEAN_MOTION_DDOT = .13716E-3

CCSDS_OMM_VERS = 2.0
CREATION_DATE  = 
ORIGINATOR     = 

OBJECT_NAME    = STARLINK-36842
OBJECT_ID      = 2026-035F
CENTER_NAME    = EARTH
REF_FRAME      = TEME
TIME_SYSTEM    = UTC
MEAN_ELEMENT_THEORY = SGP/SGP4

EPOCH          = 2026-03-01T04:00:00.999936
MEAN_MOTION    = 16.04736426
ECCENTRICITY   = .0000908
INCLINATION    = 97.2804
RA_OF_ASC_NODE = 351.8002
ARG_OF_PERICENTER = 104.4680
MEAN_ANOMALY   = 97.4193

EPHEMERIS_TYPE = 0
CLASSIFICATION_TYPE = U
NORAD_CAT_ID   = 67884
ELEMENT_SET_NO = 999
REV_AT_EPOCH   = 238
BSTAR          = -.9189E-3
MEAN_MOTION_DOT = -.613764E-2
MEAN_MOTION_DDOT = .13982E-3

CCSDS_OMM_VERS = 2.0
CREATION_DATE  = 
ORIGINATOR     = 

OBJECT_NAME    = STARLINK-36826
OBJECT_ID      = 2026-035G
CENTER_NAME    = EARTH
REF_FRAME      = TEME
TIME_SYSTEM    = UTC
MEAN_ELEMENT_THEORY = SGP/SGP4

EPOCH          = 2026-03-01T04:00:00.999936
MEAN_MOTION    = 16.04820075
ECCENTRICITY   = .0000964
INCLINATION    = 97.2803
RA_OF_ASC_NODE = 351.8010
ARG_OF_PERICENTER = 109.4017
MEAN_ANOMALY   = 94.1813

EPHEMERIS_TYPE = 0
CLASSIFICATION_TYPE = U
NORAD_CAT_ID   = 67885
ELEMENT_SET_NO = 999
REV_AT_EPOCH   = 238
BSTAR          = -.90823E-3
MEAN_MOTION_DOT = -.60972E-2
MEAN_MOTION_DDOT = .13824E-3

CCSDS_OMM_VERS = 2.0
CREATION_DATE  = 
ORIGINATOR     = 

OBJECT_NAME    = STARLINK-36390
OBJECT_ID      = 2026-035H
CENTER_NAME    = EARTH
REF_FRAME      = TEME
TIME_SYSTEM    = UTC
MEAN_ELEMENT_THEORY = SGP/SGP4

EPOCH          = 2026-03-01T04:00:00.999936
MEAN_MOTION    = 16.04963702
ECCENTRICITY   = .0000852
INCLINATION    = 97.2801
RA_OF_ASC_NODE = 351.8019
ARG_OF_PERICENTER = 102.3998
MEAN_ANOMALY   = 103.8640

EPHEMERIS_TYPE = 0
CLASSIFICATION_TYPE = U
NORAD_CAT_ID   = 67886
ELEMENT_SET_NO = 999
REV_AT_EPOCH   = 243
BSTAR          = -.91526E-3
MEAN_MOTION_DOT = -.619727E-2
MEAN_MOTION_DDOT = .14276E-3

CCSDS_OMM_VERS = 2.0
CREATION_DATE  = 
ORIGINATOR     = 

OBJECT_NAME    = STARLINK-36368
OBJECT_ID      = 2026-035J
CENTER_NAME    = EARTH
REF_FRAME      = TEME
TIME_SYSTEM    = UTC
MEAN_ELEMENT_THEORY = SGP/SGP4

EPOCH          = 2026-03-01T04:00:00.999936
MEAN_MOTION    = 16.05102453
ECCENTRICITY   = .0000919
INCLINATION    = 97.2801
RA_OF_ASC_NODE = 351.8031
ARG_OF_PERICENTER = 105.4036
MEAN_ANOMALY   = 103.3944

EPHEMERIS_TYPE = 0
CLASSIFICATION_TYPE = U
NORAD_CAT_ID   = 67887
ELEMENT_SET_NO = 999
REV_AT_EPOCH   = 238
BSTAR          = -.9368E-3
MEAN_MOTION_DOT = -.639559E-2
MEAN_MOTION_DDOT = .15166E-3

CCSDS_OMM_VERS = 2.0
CREATION_DATE  = 
ORIGINATOR     = 

OBJECT_NAME    = STARLINK-36801
OBJECT_ID      = 2026-035K
CENTER_NAME    = EARTH
REF_FRAME      = TEME
TIME_SYSTEM    = UTC
MEAN_ELEMENT_THEORY = SGP/SGP4

EPOCH          = 2026-03-01T04:00:00.999936
MEAN_MOTION    = 16.05244219
ECCENTRICITY   = .0000915
INCLINATION    = 97.2799
RA_OF_ASC_NODE = 351.8041
ARG_OF_PERICENTER = 116.5368
MEAN_ANOMALY   = 94.6937

EPHEMERIS_TYPE = 0
CLASSIFICATION_TYPE = U
NORAD_CAT_ID   = 67888
ELEMENT_SET_NO = 999
REV_AT_EPOCH   = 238
BSTAR          = -.93995E-3
MEAN_MOTION_DOT = -.6472E-2
MEAN_MOTION_DDOT = .15533E-3

